{"fetched_at":"2026-07-07T18:29:35.104Z","source":"https://celestrak.org/NORAD/elements/gp.php?NAME=KINEIS&FORMAT=JSON","constellation":"kineis","records":[{"OBJECT_NAME":"KINEIS-2D","OBJECT_ID":"2025-028C","EPOCH":"2026-07-07T09:26:54.184416","CLASSIFICATION_TYPE":"U","MEAN_MOTION":14.75752487,"ECCENTRICITY":0.0004491,"INCLINATION":97.9276,"RA_OF_ASC_NODE":240.45,"ARG_OF_PERICENTER":126.4396,"MEAN_ANOMALY":233.7228,"EPHEMERIS_TYPE":0,"NORAD_CAT_ID":62930,"ELEMENT_SET_NO":999,"REV_AT_EPOCH":7569,"BSTAR":0.0002239,"MEAN_MOTION_DOT":0.00001483,"MEAN_MOTION_DDOT":0},{"OBJECT_NAME":"KINEIS-2E","OBJECT_ID":"2025-028D","EPOCH":"2026-07-07T03:24:08.553024","CLASSIFICATION_TYPE":"U","MEAN_MOTION":14.77072473,"ECCENTRICITY":0.0002127,"INCLINATION":97.8944,"RA_OF_ASC_NODE":239.3498,"ARG_OF_PERICENTER":101.1848,"MEAN_ANOMALY":258.9602,"EPHEMERIS_TYPE":0,"NORAD_CAT_ID":62931,"ELEMENT_SET_NO":999,"REV_AT_EPOCH":7572,"BSTAR":0.00019502,"MEAN_MOTION_DOT":0.00001327,"MEAN_MOTION_DDOT":0},{"OBJECT_NAME":"KINEIS-2A","OBJECT_ID":"2025-028E","EPOCH":"2026-07-07T09:36:25.496640","CLASSIFICATION_TYPE":"U","MEAN_MOTION":14.73437108,"ECCENTRICITY":0.0006055,"INCLINATION":98.1291,"RA_OF_ASC_NODE":243.816,"ARG_OF_PERICENTER":102.4333,"MEAN_ANOMALY":257.7553,"EPHEMERIS_TYPE":0,"NORAD_CAT_ID":62932,"ELEMENT_SET_NO":999,"REV_AT_EPOCH":7558,"BSTAR":0.00019505,"MEAN_MOTION_DOT":0.00001214,"MEAN_MOTION_DDOT":0},{"OBJECT_NAME":"KINEIS-2B","OBJECT_ID":"2025-028G","EPOCH":"2026-07-07T09:03:49.373856","CLASSIFICATION_TYPE":"U","MEAN_MOTION":14.7343814,"ECCENTRICITY":0.0005032,"INCLINATION":97.9658,"RA_OF_ASC_NODE":240.8727,"ARG_OF_PERICENTER":91.2682,"MEAN_ANOMALY":268.9103,"EPHEMERIS_TYPE":0,"NORAD_CAT_ID":62934,"ELEMENT_SET_NO":999,"REV_AT_EPOCH":7563,"BSTAR":0.00018868,"MEAN_MOTION_DOT":0.00001175,"MEAN_MOTION_DDOT":0},{"OBJECT_NAME":"KINEIS-4E","OBJECT_ID":"2025-056A","EPOCH":"2026-07-07T13:40:33.513312","CLASSIFICATION_TYPE":"U","MEAN_MOTION":14.72287824,"ECCENTRICITY":0.0003063,"INCLINATION":97.9061,"RA_OF_ASC_NODE":311.9016,"ARG_OF_PERICENTER":98.2477,"MEAN_ANOMALY":261.9078,"EPHEMERIS_TYPE":0,"NORAD_CAT_ID":63300,"ELEMENT_SET_NO":999,"REV_AT_EPOCH":7012,"BSTAR":0.00021747,"MEAN_MOTION_DOT":0.00001326,"MEAN_MOTION_DDOT":0},{"OBJECT_NAME":"KINEIS-4C","OBJECT_ID":"2025-056B","EPOCH":"2026-07-07T12:20:40.886304","CLASSIFICATION_TYPE":"U","MEAN_MOTION":14.72309209,"ECCENTRICITY":0.0002287,"INCLINATION":97.9114,"RA_OF_ASC_NODE":312.0913,"ARG_OF_PERICENTER":245.6239,"MEAN_ANOMALY":114.473,"EPHEMERIS_TYPE":0,"NORAD_CAT_ID":63301,"ELEMENT_SET_NO":999,"REV_AT_EPOCH":7012,"BSTAR":0.00022259,"MEAN_MOTION_DOT":0.00001359,"MEAN_MOTION_DDOT":0},{"OBJECT_NAME":"KINEIS-4D","OBJECT_ID":"2025-056C","EPOCH":"2026-07-07T10:48:05.698944","CLASSIFICATION_TYPE":"U","MEAN_MOTION":14.7241131,"ECCENTRICITY":0.0001075,"INCLINATION":97.9036,"RA_OF_ASC_NODE":312.0082,"ARG_OF_PERICENTER":262.804,"MEAN_ANOMALY":97.3046,"EPHEMERIS_TYPE":0,"NORAD_CAT_ID":63302,"ELEMENT_SET_NO":999,"REV_AT_EPOCH":7011,"BSTAR":0.00022337,"MEAN_MOTION_DOT":0.00001367,"MEAN_MOTION_DDOT":0},{"OBJECT_NAME":"KINEIS-4A","OBJECT_ID":"2025-056D","EPOCH":"2026-07-07T13:16:10.336224","CLASSIFICATION_TYPE":"U","MEAN_MOTION":14.72318904,"ECCENTRICITY":0.000151,"INCLINATION":97.913,"RA_OF_ASC_NODE":312.0519,"ARG_OF_PERICENTER":167.0009,"MEAN_ANOMALY":193.1238,"EPHEMERIS_TYPE":0,"NORAD_CAT_ID":63303,"ELEMENT_SET_NO":999,"REV_AT_EPOCH":7012,"BSTAR":0.00021632,"MEAN_MOTION_DOT":0.00001319,"MEAN_MOTION_DDOT":0},{"OBJECT_NAME":"KINEIS-4B","OBJECT_ID":"2025-056E","EPOCH":"2026-07-07T11:13:23.210400","CLASSIFICATION_TYPE":"U","MEAN_MOTION":14.72313152,"ECCENTRICITY":0.0004672,"INCLINATION":97.9141,"RA_OF_ASC_NODE":312.0252,"ARG_OF_PERICENTER":219.7168,"MEAN_ANOMALY":140.3698,"EPHEMERIS_TYPE":0,"NORAD_CAT_ID":63304,"ELEMENT_SET_NO":999,"REV_AT_EPOCH":7010,"BSTAR":0.00021709,"MEAN_MOTION_DOT":0.00001324,"MEAN_MOTION_DDOT":0}]}
