KINEIS-2D               
1 62930U 25028C   26188.39368269  .00001483  00000+0  22390-3 0  9992
2 62930  97.9276 240.4500 0004491 126.4396 233.7228 14.75752487 75690
KINEIS-2E               
1 62931U 25028D   26188.14176566  .00001327  00000+0  19502-3 0  9991
2 62931  97.8944 239.3498 0002127 101.1848 258.9602 14.77072473 75722
KINEIS-2A               
1 62932U 25028E   26188.40029510  .00001214  00000+0  19505-3 0  9995
2 62932  98.1291 243.8160 0006055 102.4333 257.7553 14.73437108 75587
KINEIS-2B               
1 62934U 25028G   26188.37765479  .00001175  00000+0  18868-3 0  9991
2 62934  97.9658 240.8727 0005032  91.2682 268.9103 14.73438140 75633
KINEIS-4E               
1 63300U 25056A   26188.56983233  .00001326  00000+0  21747-3 0  9999
2 63300  97.9061 311.9016 0003063  98.2477 261.9078 14.72287824 70124
KINEIS-4C               
1 63301U 25056B   26188.51436211  .00001359  00000+0  22259-3 0  9999
2 63301  97.9114 312.0913 0002287 245.6239 114.4730 14.72309209 70122
KINEIS-4D               
1 63302U 25056C   26188.45006596  .00001367  00000+0  22337-3 0  9998
2 63302  97.9036 312.0082 0001075 262.8040  97.3046 14.72411310 70113
KINEIS-4A               
1 63303U 25056D   26188.55289741  .00001319  00000+0  21632-3 0  9999
2 63303  97.9130 312.0519 0001510 167.0009 193.1238 14.72318904 70123
KINEIS-4B               
1 63304U 25056E   26188.46762975  .00001324  00000+0  21709-3 0  9996
2 63304  97.9141 312.0252 0004672 219.7168 140.3698 14.72313152 70105
